KUZGTU 1 (RS47S)        
1 57217U 23091AV  26196.61115962  .00006982  00000+0  23927-3 0  9992
2 57217  97.5051 261.3906 0010031   4.8276 355.3059 15.30476538168726
SONATE-2                
1 59112U 24043Q   26196.36573116  .00026026  00000+0  31266-3 0  9993
2 59112  97.5555 348.5406 0006838 105.9094 254.2917 15.60836661132287
MESAT1                  
1 60209U 24125G   26196.56281260  .00049148  00000+0  47050-3 0  9999
2 60209  97.2242  54.7546 0010919 111.1076 249.1353 15.66471920114007
OOV-CUBE (TUBSAT-30)    
1 60240U 24128F   26196.26704743  .00000973  00000+0  86744-4 0  9997
2 60240  61.9937 127.6518 0041102 140.0470 220.3658 15.02873933110338
COLIBRI-S (RS67S)       
1 61746U 24199M   26196.62784443  .00014597  00000+0  27222-3 0  9994
2 61746  97.2947  70.7587 0009053 160.7153 199.4443 15.48863482141816
HORS 3 (RS81S)          
1 61753U 24199U   26196.57931211  .00027863  00000+0  38742-3 0  9992
2 61753  97.2930  73.0206 0007175 154.6809 205.4799 15.56927106141975
HORS 4 (RS82S)          
1 61754U 24199V   26196.57561633  .00038365  00000+0  43248-3 0  9996
2 61754  97.2871  74.4169 0007069 147.2231 212.9467 15.62413040142073
SIT-2086                
1 61764U 24199AF  26196.59207009  .00026403  00000+0  39350-3 0  9992
2 61764  97.2885  73.4116 0008259 143.1132 217.0692 15.55039599138848
HYPERVIEW 1G (RS66S)    
1 61772U 24199AP  26196.61984904  .00172880  00000+0  71105-3 0  9995
2 61772  97.2790  77.9615 0008356 147.6603 212.5181 15.85468391139163
ALTAIR (RS65S)          
1 61779U 24199AW  26196.62243103  .00006959  00000+0  19091-3 0  9991
2 61779  97.2989  65.7904 0012082 194.9265 165.1625 15.37513326141486
ASRTU-1 (AO-123)        
1 61781U 24199AY  26196.57118882  .00004621  00000+0  13358-3 0  9997
2 61781  97.2960  64.9882 0013053 199.2169 160.8584 15.36057740138286
SAMSAT-IONOSPHERE (RS7*)
1 61784U 24199BB  26196.62407525  .00036083  00000+0  44341-3 0  9994
2 61784  97.2893  73.2271 0009275 158.7137 201.4508 15.60151252141995
RTU MIREA 1 (RS51S)     
1 61785U 24199BC  26196.57937447  .00048865  00000+0  51013-3 0  9995
2 61785  97.2880  74.1731 0009335 153.9843 206.1888 15.64310928138902
TEVEL2-4                
1 63213U 25052D   26196.14627864  .00010715  00000+0  31215-3 0  9999
2 63213  97.3870  92.5984 0003540  51.9364 308.2199 15.35565165 74407
TEVEL2-5                
1 63214U 25052E   26196.17004561  .00010329  00000+0  30278-3 0  9995
2 63214  97.3866  92.5619 0003594  53.2255 306.9318 15.35379345 74402
TEVEL2-6                
1 63215U 25052F   26196.50888836  .00011734  00000+0  34391-3 0  9999
2 63215  97.3871  92.8865 0003621  54.7007 305.4575 15.35351129 74451
TEVEL2-1                
1 63217U 25052H   26195.63531658  .00009885  00000+0  29557-3 0  9993
2 63217  97.3847  91.6018 0004319  61.6960 298.4718 15.34761887 74302
TEVEL2-3                
1 63218U 25052J   26196.21566252  .00010309  00000+0  30743-3 0  9999
2 63218  97.3848  92.2082 0003999  62.2511 297.9137 15.34836829 74391
TEVEL2-2                
1 63219U 25052K   26196.15703338  .00010122  00000+0  30238-3 0  9993
2 63219  97.3840  92.1268 0004324  60.5637 299.6037 15.34784029 74383
OTP-2                   
1 63235U 25052AB  26196.19469747  .00003687  00000+0  15352-3 0  9996
2 63235  97.3835  88.2085 0008212  71.0688 289.1439 15.24337017 74134
TEVEL2-9                
1 63237U 25052AD  26196.23653776  .00009297  00000+0  29627-3 0  9993
2 63237  97.3907  91.5192 0007670  57.1732 303.0248 15.32733619 74326
TEVEL2-7                
1 63238U 25052AE  26196.15243170  .00009043  00000+0  29113-3 0  9997
2 63238  97.3906  91.3390 0007756  56.8395 303.3590 15.32415280 74302
TEVEL2-8                
1 63239U 25052AF  26196.16095353  .00008758  00000+0  28216-3 0  9992
2 63239  97.3906  91.3237 0007797  57.8563 302.3435 15.32400496 74306
INNOSAT 16 (RS92S7)     
1 64878U 25155C   26196.59924393  .00003142  00000+0  12581-3 0  9998
2 64878  97.4583 163.6452 0012480  87.2400 273.0266 15.25741361 85008
GEOSCAN 6 (RS92S6)      
1 64879U 25155D   26196.62355253  .00006159  00000+0  21016-3 0  9990
2 64879  97.4574 165.2989 0009944  80.8844 279.3522 15.30660354 85118
GEOSCAN 1 (RS92S1)      
1 64880U 25155E   26196.61442375  .00006709  00000+0  22418-3 0  9991
2 64880  97.4571 165.4635 0009896  81.2220 279.0141 15.31308661 85122
239ALFEROV (RS61S)      
1 64881U 25155F   26196.60704183  .00009116  00000+0  28200-3 0  9999
2 64881  97.4569 166.1167 0009608  80.9925 279.2404 15.33677976 85165
GEOSCAN 2 (RS92S2)      
1 64890U 25155Q   26196.60322675  .00006754  00000+0  22392-3 0  9992
2 64890  97.4569 165.6158 0009046  71.5530 288.6693 15.31566109 85137
GEOSCAN 5 (RS92S5)      
1 64891U 25155R   26196.59027710  .00009094  00000+0  27871-3 0  9990
2 64891  97.4561 166.2479 0008637  85.5311 274.6919 15.33983695 85175
GEOSCAN 4 (RS92S4)      
1 64892U 25155S   26196.57149658  .00008804  00000+0  26848-3 0  9996
2 64892  97.4565 166.2859 0008541  85.8838 274.3381 15.34150987 85174
