OBJECT_NAME,OBJECT_ID,EPOCH,MEAN_MOTION,ECCENTRICITY,INCLINATION,RA_OF_ASC_NODE,ARG_OF_PERICENTER,MEAN_ANOMALY,EPHEMERIS_TYPE,CLASSIFICATION_TYPE,NORAD_CAT_ID,ELEMENT_SET_NO,REV_AT_EPOCH,BSTAR,MEAN_MOTION_DOT,MEAN_MOTION_DDOT
KUZGTU 1 (RS47S),2023-091AV,2026-07-15T14:40:04.191168,15.30476538,.00100316,97.5051,261.3906,4.8276,355.3059,0,U,57217,999,16872,.23926725E-3,.6982E-4,0
SONATE-2,2024-043Q,2026-07-15T08:46:39.172224,15.60836661,.00068387,97.5555,348.5406,105.9094,254.2917,0,U,59112,999,13228,.31265612E-3,.26026E-3,0
MESAT1,2024-125G,2026-07-15T13:30:27.008640,15.66471920,.00109195,97.2242,54.7546,111.1076,249.1353,0,U,60209,999,11400,.47050229E-3,.49148E-3,0
OOV-CUBE (TUBSAT-30),2024-128F,2026-07-15T06:24:32.897952,15.02873933,.0041102,61.9937,127.6518,140.0470,220.3658,0,U,60240,999,11033,.8674369E-4,.973E-5,0
COLIBRI-S (RS67S),2024-199M,2026-07-15T15:04:05.758752,15.48863482,.00090537,97.2947,70.7587,160.7153,199.4443,0,U,61746,999,14181,.27221942E-3,.14597E-3,0
HORS 3 (RS81S),2024-199U,2026-07-15T13:54:12.566304,15.56927106,.00071757,97.2930,73.0206,154.6809,205.4799,0,U,61753,999,14197,.38741777E-3,.27863E-3,0
HORS 4 (RS82S),2024-199V,2026-07-15T13:48:53.250912,15.62413040,.00070691,97.2871,74.4169,147.2231,212.9467,0,U,61754,999,14207,.43248237E-3,.38365E-3,0
SIT-2086,2024-199AF,2026-07-15T14:12:34.855776,15.55039599,.00082598,97.2885,73.4116,143.1132,217.0692,0,U,61764,999,13884,.39349852E-3,.26403E-3,0
HYPERVIEW 1G (RS66S),2024-199AP,2026-07-15T14:52:34.957056,15.85468391,.00083568,97.2790,77.9615,147.6603,212.5181,0,U,61772,999,13916,.71104511E-3,.17288E-2,0
ALTAIR (RS65S),2024-199AW,2026-07-15T14:56:18.040992,15.37513326,.00120821,97.2989,65.7904,194.9265,165.1625,0,U,61779,999,14148,.19091111E-3,.6959E-4,0
ASRTU-1 (AO-123),2024-199AY,2026-07-15T13:42:30.714048,15.36057740,.00130537,97.2960,64.9882,199.2169,160.8584,0,U,61781,999,13828,.13357846E-3,.4621E-4,0
SAMSAT-IONOSPHERE (RS75S),2024-199BB,2026-07-15T14:58:40.101600,15.60151252,.00092752,97.2893,73.2271,158.7137,201.4508,0,U,61784,999,14199,.44341051E-3,.36083E-3,0
RTU MIREA 1 (RS51S),2024-199BC,2026-07-15T13:54:17.954208,15.64310928,.00093351,97.2880,74.1731,153.9843,206.1888,0,U,61785,999,13890,.51012573E-3,.48865E-3,0
TEVEL2-4,2025-052D,2026-07-15T03:30:38.474496,15.35565165,.00035404,97.3870,92.5984,51.9364,308.2199,0,U,63213,999,7440,.31214817E-3,.10715E-3,0
TEVEL2-5,2025-052E,2026-07-15T04:04:51.940704,15.35379345,.00035943,97.3866,92.5619,53.2255,306.9318,0,U,63214,999,7440,.30277793E-3,.10329E-3,0
TEVEL2-6,2025-052F,2026-07-15T12:12:47.954304,15.35351129,.00036215,97.3871,92.8865,54.7007,305.4575,0,U,63215,999,7445,.343915E-3,.11734E-3,0
TEVEL2-1,2025-052H,2026-07-14T15:14:51.352512,15.34761887,.0004319,97.3847,91.6018,61.6960,298.4718,0,U,63217,999,7430,.2955724E-3,.9885E-4,0
TEVEL2-3,2025-052J,2026-07-15T05:10:33.241728,15.34836829,.00039996,97.3848,92.2082,62.2511,297.9137,0,U,63218,999,7439,.30743443E-3,.10309E-3,0
TEVEL2-2,2025-052K,2026-07-15T03:46:07.684032,15.34784029,.00043245,97.3840,92.1268,60.5637,299.6037,0,U,63219,999,7438,.30238262E-3,.10122E-3,0
OTP-2,2025-052AB,2026-07-15T04:40:21.861408,15.24337017,.00082123,97.3835,88.2085,71.0688,289.1439,0,U,63235,999,7413,.15351734E-3,.3687E-4,0
TEVEL2-9,2025-052AD,2026-07-15T05:40:36.862464,15.32733619,.00076701,97.3907,91.5192,57.1732,303.0248,0,U,63237,999,7432,.29626782E-3,.9297E-4,0
TEVEL2-7,2025-052AE,2026-07-15T03:39:30.098880,15.32415280,.0007756,97.3906,91.3390,56.8395,303.3590,0,U,63238,999,7430,.29112625E-3,.9043E-4,0
TEVEL2-8,2025-052AF,2026-07-15T03:51:46.384992,15.32400496,.00077974,97.3906,91.3237,57.8563,302.3435,0,U,63239,999,7430,.28216258E-3,.8758E-4,0
INNOSAT 16 (RS92S7),2025-155C,2026-07-15T14:22:54.675552,15.25741361,.00124802,97.4583,163.6452,87.2400,273.0266,0,U,64878,999,8500,.12581408E-3,.3142E-4,0
GEOSCAN 6 (RS92S6),2025-155D,2026-07-15T14:57:54.938592,15.30660354,.00099444,97.4574,165.2989,80.8844,279.3522,0,U,64879,999,8511,.21016476E-3,.6159E-4,0
GEOSCAN 1 (RS92S1),2025-155E,2026-07-15T14:44:46.212000,15.31308661,.00098964,97.4571,165.4635,81.2220,279.0141,0,U,64880,999,8512,.22417938E-3,.6709E-4,0
239ALFEROV (RS61S),2025-155F,2026-07-15T14:34:08.414112,15.33677976,.00096088,97.4569,166.1167,80.9925,279.2404,0,U,64881,999,8516,.28200019E-3,.9116E-4,0
GEOSCAN 2 (RS92S2),2025-155Q,2026-07-15T14:28:38.791200,15.31566109,.00090463,97.4569,165.6158,71.5530,288.6693,0,U,64890,999,8513,.2239216E-3,.6754E-4,0
GEOSCAN 5 (RS92S5),2025-155R,2026-07-15T14:09:59.941440,15.33983695,.00086378,97.4561,166.2479,85.5311,274.6919,0,U,64891,999,8517,.27870521E-3,.9094E-4,0
GEOSCAN 4 (RS92S4),2025-155S,2026-07-15T13:42:57.304512,15.34150987,.00085419,97.4565,166.2859,85.8838,274.3381,0,U,64892,999,8517,.26847909E-3,.8804E-4,0
